{{Infobox Planet
| minorplanet = yes
| bgcolour = #FFFFC0
| name = 1125 China <ref name="a">{{cite web | title="JPL Small-Body Database Browser" | url=http://ssd.jpl.nasa.gov/sbdb.cgi?sstr=1125 | accessdate=2007-10-17}}</ref>
| discovery = yes
| discoverer = [[張鈺哲|張鈺哲]]
| discovered = 1957年10月30日
| epoch = Orbital Elements at Epoch 2454400.5 (2007-Oct-27.0) TDB
| aphelion = 3.8075925[[天文单位|AU]]
| perihelion = 2.4506471AU
| semimajor = 3.1291198AU
| eccentricity = 0.2168254
| period = 2021.7698562 days<br />5.54 years
| inclination = 3.04107 °
| asc_node = 97.19669 °
| mean_anomaly = 292.73324 °
| arg_peri = 11.48629 °
| physical_characteristics = yes| abs_magnitude = 11.2 mag
}}
'''小行星1125'''（'''1125 China'''）是一个位于[[小行星带|小行星带]]的小行星，绕[[太阳|太阳]]公转一周需5年。由前[[紫金山天文台|紫金山天文台]]台長[[张钰哲|张钰哲]]（Y. C. Chang）于1957年10月30日在[[南京|南京]]发现。由发现地点命名为[[中國|China]]。临时编号为1957 UN<sub>1</sub>。

1928年，张钰哲曾发现一颗小行星，并命名为「中華」（China）。但是，後來這顆小行星失去了蹤跡，[[紫金山天文臺|紫金山天文臺]]於1957年發現了一顆軌道近似的[[小行星|小行星]]，經[[张钰哲|张钰哲]]本人同意後，便用來取代小行星1125。而在[[張鈺哲|張鈺哲]]逝世後一個月，原来的小行星1125（1928 UF）重新找回，被重新编号为[[小行星3789|小行星3789]]。

== 参见 ==

{{reflist}}
* [[小行星3789|小行星3789]]，(1928 UF)
{{beltasteroid-stub}}
{{Minor Planet Number|(1124)[[小行星1124|小行星1124]]|(1126)[[小行星1126|小行星1126]]}}
[[Category:小行星带天体|Category:小行星带天体]]
[[Category:以地名命名的小行星|Category:以地名命名的小行星]]
[[Category:1957年发现的小行星|Category:1957年发现的小行星]]